Location_Name,Address,Zip,City,Latitude,Longitude,Geometry,URL,Category,Description,Type,Service,Target_Group
Automation Valley Nordbayern,Hauptmarkt 25-27,90403,Nürnberg,49.4541702270507,11.077364921570,Point,https://automation-valley.de/,Cluster & Innovationsagentur,"Automation Valley Nordbayern ist eine regionale Initiative, die sich auf die Industrie 4.0 konzentriert. Sie vernetzt etwa 300 Firmen und wissenschaftliche Einrichtungen in Nordbayern, die in diesem Sektor tätig sind. Das Netzwerk bietet eine Plattform für die Förderung von Projekten, den Austausch von Informationen und die Organisation von Veranstaltungen in der Region.","Produktionstechnik, Cluster","Vernetzung von Unternehmen und wissenschaftlichen Einrichtungen, Förderung von Industrie 4.0-Projekten, Informationen zu aktuellen Entwicklungen und Veranstaltungen","Unternehmen, Hochschulen, Institutionen, Forschungseinrichtungen, Branchenakteure"
Bayern Innovativ - Innovation leben,Am Tullnaupark 8,90402,Nürnberg,49.4501261000000,11.102193300000,Point,https://www.bayern-innovativ.de/de/startseite,Cluster & Innovationsagentur,"Bayern Innovativ stellt als Cluster und Innovationsagentur dar, die sich auf die Förderung von Innovationen und den Technologietransfer in Bayern spezialisiert hat. Sie dient als Plattform für die Vernetzung verschiedener Akteure und bietet umfangreiche Dienstleistungen zur Unterstützung von Innovationsprozessen.","Innovations- und Förderagentur, Cluster","Netzwerke & Thinknet Bayern, Technologie- & Wissenstransfer, Fördermittelberatung & Projektträgerschaft, Vermarktung & Kommunikation, Innovationsdienstleistungen","Unternehmen, Start-ups, Hochschulen, Institutionen, Forschungseinrichtungen, Branchenakteure"
IT-Cluster Oberfranken,Kronacher Straße 41,96052,Bamberg,49.9176997000000,10.897897100000,Point,https://www.it-cluster-oberfranken.de/,Cluster & Innovationsagentur,"Das IT-Cluster Oberfranken ist ein regionales Netzwerk, das sich der Förderung von IT-Themen und der Vernetzung von Unternehmen und Institutionen in Oberfranken widmet. Es organisiert regelmäßige Events und Workshops und dient als Wissens- und Wachstumspool in der IT-Branche.",Regionales Netzwerk für IT-Unternehmen und Institutionen,"Vernetzung von Unternehmen und Institutionen, Förderung von IT- und Zukunftsthemen, Veranstaltungen, Workshops, Meetups","Unternehmen aus IT, Institutionen, Start-ups, Wissenschaftler"
NIK e.V. | Netzwerk der Digitalwirtschaft,Obermaierstraße 7,90408,Nürnberg,49.4706025000000,11.073072000000,Point,https://www.nik-nbg.de/,Cluster & Innovationsagentur,"Das NIK e.V. ist ein Netzwerk, das sich der Förderung der Digitalwirtschaft in der Region Nürnberg widmet. Es vernetzt Unternehmen, Hochschulen, Kommunen und Institutionen und unterstützt sie bei der digitalen Transformation durch Austausch, Impulse und Informationsbereitstellung.","Digitalwirtschaftsnetzwerk, Cluster, Digitalisierung","Austausch und neue Kontakte, Impulse und neue Ideen, Informationen und neue Trends","Unternehmen, Hochschulen, Institutionen, Forschungseinrichtungen, Branchenakteure"
Nürnberg Messe,Messezentrum,90471,Nürnberg,49.4165950000000,11.121889900000,Point,https://www.nuernbergmesse.de/,Cluster & Innovationsagentur,"Die NürnbergMesse ist eine der führenden Messegesellschaften weltweit und organisiert Fachmessen und Kongresse in Nürnberg und international. Sie bietet eine Plattform für Innovationen, Geschäftsentwicklung und Networking in verschiedenen Branchen.","Veranstalter von Messen, Kongressen und Events","Organisation und Durchführung von Fachmessen und Kongressen in verschiedenen Branchen, darunter Building & Construction, Electronics & Security, Process Technology, Retail & Consumer Goods sowie Social & Public","Aussteller, Besucher, Branchenakteure"
XR Hub Bavaria - Nürnberg,Obermaierstraße 7,90408,Nürnberg,49.4706025000000,11.073072000000,Point,https://www.xrhub-nue.de/,Cluster & Innovationsagentur,"Der XR HUB Nürnberg ist Teil des XR HUB Bavaria, einer Initiative zur Stärkung des Medien- und Wirtschaftsstandorts Bayern. Es bietet Beratung, Unterstützung und Weiterbildungsangebote im Bereich Extended Reality und fördert die Vernetzung von Akteuren aus verschiedenen Technologiebereichen in der Metropolregion. Der XR HUB Nürnberg konzentriert sich auf die Aufklärung und den Zugang zu XR-Technologien und schafft Verbindungen zu anderen Technologiefeldern.",Initiative zur Förderung der Medien- und Wirtschaftsstandorts Bayern,"Beratung und Unterstützung im Bereich Extended Reality, Vernetzung von Akteuren aus unterschiedlichen Technologiebereichen in der Metropolregion, Aus- und Weiterbildungsveranstaltungen für Unternehmen und Interessierte, Berufsfelderkundung und Jobmöglichkeiten für Schüler:innen und Studierende im Bereich XR, Anregungen und Input für XR als Querschnittsthema in verschiedenen Bereichen","Unternehmen, Schüler:innen, Studierende, Interessierte an XR-Technologien"
ATHEM,Bucher Str. 79a,90419,Nürnberg,49.4639412000000,11.069480700000,Point,https://athem.space/,Coworking Space,"ATHem Space bietet einen vielseitigen Raum für Kreativität, Innovation und persönliches Wachstum. Mit seinem Open Creativity Space, der Transformation Academy und der Elevate The Future Community bietet es eine Plattform für kreative Gedanken, ganzheitliche Entwicklung und technologische Fortschritte. Es organisiert regelmäßige Events, Workshops und bietet Räume für Coworking und Seminare an.",Innovations- und Kreativzentrum,"Open Creativity Space, Transformation Academy, Elevate The Future Community, Angebote für kreative Köpfe und ganzheitliches Wachstum, Coworking-Bereich, Seminar- und Trainingsräume, Events und Workshops","Kreative, Teams, Organisationen, Interessierte an Technologie, Unternehmen"
Bleiweiss Design Labor,Allersberger Str. 101,90461,Nürnberg,49.4388791000000,11.090532800000,Point,bleiweiss-design-labor.de,Coworking Space,"Das Bleiweiß Design Labor in der Südstadt Nürnbergs bietet vielseitige Nutzungsmöglichkeiten, darunter als Coworking Space, Seminar- und Workshopraum oder als Ort für Ausstellungen und Pop-up-Stores. Es zeichnet sich durch moderne Möbel und ein kreatives Umfeld aus, das für eine angenehme Arbeitsatmosphäre sorgt.","Raum für Seminare, Workshops, Ausstellungen, Pop-up-Stores","Vermietung von Arbeitstischen, Raum für Seminare und Workshops, Ausstattung für kreatives Arbeitsumfeld","Kreative, Teams, Organisationen, Interessierte an Technologie, Unternehmen"
Brucklyn Coworking,Stoke-on-Trent-Straße 1,91058,Erlangen,49.5687645000000,10.992478600000,Point,https://www.brucklyn-hall.de/,Coworking Space,"Brucklyn Coworking bietet eine breite Palette von Arbeitsplatzlösungen in Fürth, die von flexiblen Coworking-Arbeitsplätzen bis hin zu privaten Büros und virtuellen Firmensitzen reichen. Es ist auch eine Eventlocation für Workshops, Seminare und Betriebsversammlungen. Brucklyn bietet zudem eine Vielzahl von Dienstleistungen wie technischen Support, Catering und Eventplanung, um den Arbeitsalltag und besondere Anlässe zu unterstützen.","Arbeitsplatz, Meeting- und Eventraum","Flexibles Coworking, Highspeed Internet, Eventspace, Front Desk, Technischer Support, Arbeitsplatzreinigung, Catering, Gästeservice, Eventplanung, Plug & Work Desk, Own Desk, Private Office, Virtual Office & Firmensitz, Event und Tagungen, Konferenz- und Tagungsräume, Workshop Rooms","Freiberufler, Selbständige,Programmierer, Teams, Unternehmen"
Business Offices. Arbeiten mit Lebensqualität.,Moststraße 33,90762,Fürth,49.4730434500000,10.992442751705,Point,https://business-offices.de/,Coworking Space,Business Offices bietet Unternehmer:innen moderne und lichtdurchflutete Büroräume mit Fullservice und höchstem Hygiene-Standard in der Stadt Fürth. Die Räumlichkeiten sind flexibel buchbar und bieten eine ruhige Atmosphäre für fokussiertes Arbeiten sowie einen professionellen Service.,Arbeitskonzepte für Unternehmer:innen,"Hochwertige Büroräume, Konferenz- und Teamräume, 24/7 Flexibilität, High-Speed-Internet, Fullservice, höchster Hygiene-Standard",Unternehmen
Coworking büro,Flußstraße 17,90491,Nürnberg,49.4635286000000,11.125916300000,Point,https://matteobalestri.com/coworking-office/,Coworking Space,"Das Coworking Office von Matteo Balestri bietet flexible Arbeitsplatzlösungen in Nürnberg. Mit Optionen, die von WLAN und Druckerzugang bis hin zu Kaffee und Tee reichen, ist es eine ideale Wahl für diejenigen, die einen professionellen Arbeitsraum für kurze Zeit benötigen. Das Büro ist täglich buchbar und bietet eine ruhige und produktive Atmosphäre.",Coworking Space,"WLAN, Drucker, Kaffee und Tee, Verfügbarkeit von Büroräumen auf Tagesbasis","Freiberufler, Selbständige, Programmierer, Teams, Unternehmen"
Coworking Erlangen,Henkestraße 91,91052,Erlangen,49.5947114000000,11.018681800000,Point,https://coworking-erlangen.de/,Coworking Space,"Coworking Erlangen ist ein von der Community getriebener Coworking Space in der Nürnberger Innenstadt. Es bietet flexible Arbeitsplatzlösungen und eine Plattform für kreative und technologieorientierte Zusammenarbeit. Der Raum fördert Kollaboration und Networking und richtet sich an Einzelpersonen sowie Teams, die einen inspirierenden und dynamischen Arbeitsort suchen.",Coworking Space,"Coworking Mitgliedschaft ab einem Tag, Buchung von Meetingräumen stunden- oder tageweise, Registrierung einer Geschäftsadresse (Postbox), Veranstaltungsort für Community-Events und Meetups","Freiberufler, Selbständige, Programmierer, Teams, Unternehmen"
CoWorking Fürth,Moststraße 33,90762,Fürth,49.4730434500000,10.992442751705,Point,https://coworking-fuerth.de/,Coworking Space,"Coworking Fürth ist ein von der Community getriebener Coworking Space in der Nürnberger Innenstadt. Es bietet flexible Arbeitsplatzlösungen und eine Plattform für kreative und technologieorientierte Zusammenarbeit. Der Raum fördert Kollaboration und Networking und richtet sich an Einzelpersonen sowie Teams, die einen inspirierenden und dynamischen Arbeitsort suchen.",Coworking Space,"Coworking Mitgliedschaft ab einem Tag, Buchung von Meetingräumen stunden- oder tageweise, Registrierung einer Geschäftsadresse (Postbox), Veranstaltungsort für Community-Events und Meetups","Freiberufler, Selbständige, Programmierer, Teams, Unternehmen"
Coworking Koppenhof Bamberg,Nürnberger Str. 108e,96050,Bamberg,49.8921926999999,10.905956089367,Point,https://coworking-koppenhof-bamberg.business.site/,Coworking Space,"Coworking Koppenhof Bamberg bietet in der Nürnberger Straße in Bamberg eine moderne und zugängliche Co-Working-Fläche. Es ist ein idealer Ort für diejenigen, die in einer gemeinschaftlichen Umgebung arbeiten und sich vernetzen möchten",Coworking Space,"Schreibtisch-/Arbeitsplatzvermietung, separater Besprechungsraum, kleine Küche mit Kaffee/Tee","Freiberufler, Selbständige, Programmierer, Teams, Unternehmen"
Coworking Nürnberg,Josephsplatz 8,90403,Nürnberg,49.4516949000000,11.073492500000,Point,https://coworking-nuernberg.de/,Coworking Space,"Coworking Nürnberg ist ein von der Community getriebener Coworking Space in der Nürnberger Innenstadt. Es bietet flexible Arbeitsplatzlösungen und eine Plattform für kreative und technologieorientierte Zusammenarbeit. Der Raum fördert Kollaboration und Networking und richtet sich an Einzelpersonen sowie Teams, die einen inspirierenden und dynamischen Arbeitsort suchen.",Coworking Space,"Coworking Mitgliedschaft ab einem Tag, Buchung von Meetingräumen stunden- oder tageweise, Registrierung einer Geschäftsadresse (Postbox), Veranstaltungsort für Community-Events und Meetups","Freiberufler, Programmierer, Teams, Unternehmen"
Coworkingspace Kreativlabor,Schiffstraße 7,91054,Erlangen,49.5999552000000,11.003997119173,Point,http://www.kreativlabor-erlangen.com/,Coworking Space,"Das Kreativlabor in Erlangen bietet nicht nur einen Coworking Space, sondern auch verschiedene Workshops und Veranstaltungen in den Bereichen Kunst und Handwerk. Es richtet sich an kreative Köpfe, die sowohl praktische Fähigkeiten erlernen als auch ihre eigenen Projekte umsetzen möchten. Das Kreativlabor bietet zudem eine Plattform für regionale Künstler und Designer, um ihre Werke auszustellen und zu verkaufen.",Raum für kreative Arbeit und Workshops,"Kunst- und Handwerker-Workshops, Goldschmiede-Techniken, Raum für kreative Projekte und Coworking, Kunstausstellungen, handgemachte Produkte ""Made in Erlangen""","Künstler, Heimwerker, Kreative, Interessierte an Kunst und Handarbeit"
Design Offices Erlangen Paul Carré,Paul-Gossen-Straße 75,91052,Erlangen,49.5781291000000,11.003653300000,Point,https://www.designoffices.de/standorte/buero-mieten-erlangen/erlangen-paul-carre,Coworking Space,"Design Offices Erlangen Paul-Carré bietet ein vielseitiges Arbeitsumfeld mit Coworking Spaces, privaten Büroflächen und modernen Meeting- und Konferenzräumen. Der Standort eignet sich für eine Vielzahl von Nutzern, darunter Unternehmen, Projektteams und Einzelpersonen, die flexible und inspirierende Arbeitsumgebungen suchen. Zusätzlich bietet es eine Eventfläche mit Dachterrasse für Business-Events.","Arbeitsplatz, Meeting- und Eventraum","Coworking Spaces, Office Spaces, Meeting Spaces, Conference Spaces, inspirierende Umgebungen für kreative Ideenfindung und Brainstormings, hochwertige Büroausstattung, moderne Meeting- und Tagungsräume, Eventfläche mit Dachterrasse","Freiberufler, Selbständige,Programmierer, Teams, Unternehmen"
everyworks bei Design Offices,Bahnhofstraße 2,90402,Nürnberg,49.4487302000000,11.096828300000,Point,https://everyworks.de/locations/nuernberg-hbf/,Coworking Space,"Everyworks Nürnberg bietet am Hauptbahnhof flexible Arbeitsplätze und Meetingräume an. Es ist ideal für Geschäftsreisende und mobile Arbeiter, die einen zentralen und flexiblen Arbeitsplatz benötigen. Mit der Option, Arbeitsplätze und Räume spontan zu buchen, bietet Everyworks eine praktische Lösung für das mobile Arbeiten in zentraler Lage.",Flexible Arbeitsplatzlösung,"Flexible Arbeitsplätze und Meetingräume direkt am Bahnhof, Minute Seat, Daypass, Meeting Rooms, schalldichte Telefonboxen, freie Sitzplatzwahl, inklusive Kaffee, Tee und Wasser","Freiberufler, Selbständige, Geschäftsreisende"
FEM{ME}SPACE Bamberg | women work community,Ob. Königstraße 40,96052,Bamberg,49.8967752000000,10.895676200000,Point,femmespacebamberg.de,Coworking Space,"FEM{ME}SPACE bietet in Bamberg einen Coworking Space speziell für Frauen an. Es ist mehr als ein Arbeitsplatz – es ist ein Ort des kreativen Austauschs, der Vernetzung und der Veranstaltung unterschiedlichster Events. Mit einer entspannten Mittagspause in der großen Küche und einem Raum für Besprechungen und Kundentermine, bietet FEM{ME}SPACE eine inspirierende Arbeitsumgebung fernab von Neid und Missgunst.","Arbeitsplatz, Community-Treffpunkt","Coworking Mitgliedschaft, Tagungsraum, Veranstaltungen wie Lesungen, Konferenzen, Seminare, monatlicher Stammtisch, Netzwerk-Events","Frauen, Unternehmen, Freiberufler, Kreative"
Golfpark Office,Georg-Zorn-Straße 37,90765,Fürth,49.4783489000000,11.009656250000,Point,https://www.golfpark-office.de/,Coworking Space,"Das Golfpark Office bietet hochwertig ausgestattete Büroräume in einem ökologisch gebauten Gebäude. Es verfügt über moderne Konferenztechnik, schnelles Internet und flexible Raumgestaltungsmöglichkeiten. Die Einrichtung ist ideal für Unternehmen und Selbstständige, die Wert auf ein angenehmes Arbeitsumfeld und Nachhaltigkeit legen.",Bürogebäude mit umfassendem Service,"Mietflächen für Büro, Produktion, Lager, Fotostudio, Werkstatt, Konferenz- und Teamräume, Besprechungsräume mit Konferenztechnik, schnelle Glasfaser-Internetanbindung, Parkplätze, Grünflächen, Außenbereich für Arbeit mit WLAN, Veranstaltungen, ökologische Bauweise","Freiberufler, Selbständige, Programmierer, Teams, Unternehmen"
hib COWORKING,Äußere Bayreuther Str. 59,90409,Nürnberg,49.4686497000000,11.098934200000,Point,http://nuernberg-coworking.de/,Coworking Space,"hib COWORKING bietet ein flexibles Arbeitsumfeld mit verschiedenen Optionen von Gemeinschaftsbüros bis hin zu privaten Büros und Meetingräumen. Es ist für Personen geeignet, die einen professionellen Arbeitsplatz oder Raum für Seminare, Workshops und Geschäftstreffen suchen. Darüber hinaus bietet es Übernachtungsmöglichkeiten und eine entspannte Arbeitsatmosphäre mit moderner Ausstattung.",Professionelles Arbeitsumfeld,"Gemeinschaftsbüro, private Büros, Meeting Rooms, Projektraum, Seminarraum, Geschäftsadresse mit Postfachservice, Community-Küche, Apartment für Übernachtungen, schnelles WLAN, Drucker & Scanner, Schließfächer, Monitore","Freiberufler, Selbständige, Programmierer, Teams, Unternehmen"
LETRA Haus,Karolinenstraße 17,90763,Fürth,49.4702233000000,10.986689456250,Point,http://www.letrafactory.de/,Coworking Space,"Die LETRA FACTORY bietet in einem stilvollen Co-Working-Ambiente im ehemaligen Fabrik- und Geschäftsgebäude der Firma Lederwaren Trautner, ein historisches Baudenkmal der Stadt Fürth, professionelle Büroarbeitsplätze an. Sie ist sowohl für individuelles Arbeiten als auch für Meetings und Gespräche geeignet und bietet eine inspirierende Atmosphäre für kreative Arbeit.",Professionelle Büroarbeitsplätze,"Feste Arbeitsplätze (Fix-Desk), Zone für Meetings und Besprechungen, Webspace unter letrafactory.de, Küche mit Kühlschrank und Kochgelegenheit, verschiedene Bereiche für Entspannung und Gespräche, eigene Postanschrift","Freiberufler, Selbständige, Programmierer, Teams, Unternehmen"
Neu-Raum Erlangen,Heuwaagstraße 10,91054,Erlangen,49.5988726000000,11.002463400000,Point,https://www.neu-raum.info/,Coworking Space,"NEU-RAUM in Erlangen ist ein inspirierender Ort, der Räume für Gespräche, Workshops und persönliche Weiterentwicklung bietet. Er richtet sich an Menschen, die ihre Ideen entwickeln, weiterentwickeln und in einem kreativen Umfeld austauschen möchten. NEU-RAUM fördert die positive Energie und Kreativität in seinen Räumen und bietet ein buntes Angebot für die persönliche und berufliche Entwicklung.",Inspirierender Ort für Ideen und Austausch,"Räume für Gespräche und Workshops, Angebot für persönliche Weiterentwicklung, positive Energie in Räumen","Freiberufler, Selbständige, Kreative"
Nürnberg Workspace,Regensburger Str. 334A,90480,Nürnberg,49.4319622000000,11.129792100000,Point,https://www.nuernberg-workspace.de/,Coworking Space,"Nürnberg Workspace bietet flexible Arbeitsmöglichkeiten in einer professionellen Umgebung. Mit einer Vielzahl an Raumoptionen, von Konferenzräumen über Einzelbüros bis hin zu Coworking Spaces, ist es ideal für Freelancer, Startups und Unternehmen. Die Ausstattung umfasst unter anderem WLAN, Parkplätze und einen Snackautomaten, was die tägliche Arbeit komfortabel und effizient gestaltet.",Professionelle Arbeitsumgebung,"Flexible Büro-, Meeting- und Coworkingflächen, Konferenzräume, Projekträume, Einzelbüros, 2er Büros, kostenloses WLAN, kostenlose Parkplätze, Snackautomat","Freiberufler, Selbständige, Programmierer, Teams, Unternehmen"
Office Club Nürnberg FrankenCampus,Frankenstraße 152,90461,Nürnberg,49.4285555000000,11.088841200000,Point,https://www.officeclub.com/standorte/coworking-space-business-center-nuernberg-frankencampus-office-club,Coworking Space,"Der Office Club Nürnberg FrankenCampus bietet ein modernes Arbeitsumfeld im Businesspark „FrankenCampus“ in der Nürnberger Südstadt. Der Standort verfügt über eine hervorragende Verkehrsanbindung und bietet flexibel nutzbare Räumlichkeiten für Coworking, Meetings und Events. Die umfangreichen Services und Annehmlichkeiten tragen zur Produktivität und zum Komfort der Nutzer bei.","Arbeitsplatz, Meeting- und Eventraum","Flexible Arbeitsplätze, Büroräume & Feste Arbeitsplätze, Konferenzräume, Geschäftsadresse, Virtuelles Büro, Multifunktionsdrucker, Club-Café/Kitchen, umfassender Postservice, hochwertige Einrichtung, Highspeed Internet, unkompliziertes Netzwerken, sichere Arbeitsplätze, freundliches Team vor Ort, Gemeinschaftsbereiche, Büroreinigung","Freiberufler, Selbständige,Programmierer, Geschäftsreisende, Teams, Unternehmen"
PINC Spaces,Lenzstraße 5,90408,Nürnberg,49.4710237000000,11.079556000000,Point,https://www.pinc-spaces.de/,Coworking Space,"PINC Spaces in Nürnberg bietet vielseitig nutzbare Räumlichkeiten für eine breite Palette von Veranstaltungen. Mit einem gemütlichen Garten, der zum Grillen einlädt, sowie verschiedenen Räumen für Meetings und Seminare, ist es ein idealer Ort für den kreativen und inspirierten Austausch. PINC Spaces unterstützt bei der Organisation von Events, von Catering bis hin zum technischen Setup, um sicherzustellen, dass jede Veranstaltung reibungslos verläuft.","Ort für Veranstaltungen, Workshops und Seminare","Meetingräume, Seminarraum, Coworking Space, PINC Garden, Catering, Event-Organisation, Setup, Räume für Yoga-Sessions, Veranstaltungen wie Lesungen, Konferenzen und Seminare","Freiberufler, Selbständige, Teams, Unternehmen"
"Regus - Nuernberg, City Center ZeltnerEck",Zeltnerstraße 1-3,90443,Nürnberg,49.4467579000000,11.071882700000,Point,https://www.regus.com/de-de,Coworking Space,"Regus in Nürnberg bietet ein breites Spektrum an Büro- und Arbeitsplatzlösungen. Es ist ideal für Unternehmen, Freelancer und Start-ups, die flexible Arbeitsplatzoptionen in einer professionellen Umgebung suchen. Mit modern ausgestatteten Räumen und umfassenden Dienstleistungen wie Highspeed-Internet, Telefon- und Empfangsservice sowie Konferenzräumen, erfüllt Regus Seetor die Bedürfnisse einer breiten Palette von Geschäftsanforderungen.","Arbeitsplatz, Meeting- und Eventraum","Büroräume, Coworking-Plätze, virtuelle Büros, Konferenz- und Tagungsräume, Hot Desks, Tagesbüros, Büro-Mitgliedschaft, Tages-Coworking, Geschäftsadresse, Telefon- und Empfangsservice, Konferenzräume, Schulungsräume, Boardrooms, 24/7 Zugang, Highspeed Internet","Freiberufler, Selbständige,Programmierer, Teams, Unternehmen"
StartUp Factory GmbH,Laubanger 17 h,96052,Bamberg,49.9107755000000,10.873514702567,Point,https://www.startup-factory.org/,Coworking Space,"Die StartUp Factory in Bamberg bietet moderne Räumlichkeiten für Business-Meetings, Seminare und kulturelle Veranstaltungen. Neben den Raumvermietungen für geschäftliche Zwecke engagiert sich die StartUp Factory auch im kulturellen Bereich, unter anderem als Sponsor des Blues und Jazz Festivals in Bamberg. Sie bietet damit eine Plattform, die sowohl geschäftliche als auch kulturelle Interessen bedient.","Ort für Meetings, Seminare und kulturelle Veranstaltungen","Vermietung von modernen Meeting- und Seminarraum, Bühne für Veranstaltungen, Partner und Sponsor des Blues und Jazz Festivals Bamberg","Unternehmen, Veranstalter, Interessierte an Kultur"
"Studio R5 - Coworking, Offsite Location",Rosenaustraße 5,90429,Nürnberg,49.4498135000000,11.062737200000,Point,,Coworking Space,"Studio R5 bietet in einem schönen, großen Studio am Rosenaupark konzentriertes Arbeiten in schöner Atmosphäre und mit viel Platz. Es gibt feste und tageweise buchbare Arbeitsplätze sowie einen separaten Raum für ungestörte Meetings oder Kundenbesuche",Coworking Space und Offsite Location,"Schreibtisch-/Arbeitsplatzvermietung, separater Besprechungsraum, kleine Küche mit Kaffee/Tee und der Möglichkeit etwas zu kochen, zentrale Lage","Freiberufler, Selbständige, Kreative, Programmierer, Teams"
Twostay Coworking Nürnberg x Sausalitos,Färberstraße 10,90402,Nürnberg,49.4498557000000,11.072696600000,Point,https://twostay.work/,Coworking Space,"TwoStay bietet ein innovatives Coworking-Konzept, das ungenutzte Räume in Hotels, Restaurants, Bars und Einkaufszentren in München und Frankfurt in kreative und flexible Arbeitsplätze verwandelt. Die Pläne sind flexibel und beinhalten alles, was man zum Arbeiten braucht, von Hot Desks bis hin zu Breakout-Räumen und Fokus-Bereichen. TwoStay eignet sich für Personen, die eine flexible und inspirierende Arbeitsumgebung suchen und dabei nur für die tatsächliche Nutzung zahlen möchten.",Flexible Arbeitsplatzlösungen,"Flexible Arbeitsplätze und Meetingräume, Schreibtische, Breakout-Räume, Fokus-Bereiche, Pläne ab 6€, multifunktionale Räume für Fotoshootings, Yoga usw., Hotel-Lobbys, Retail-Plätze, leere Stockwerke, Restaurants, Bars und Einkaufszentren als Coworking-Orte","Freiberufler, Selbständige, Kreative, Programmierer, Teams"
Venquis Nürnberg (Design Offices Nürnberg City),Königstorgraben 11,90402,Nürnberg,49.4488372802734,11.082666397095,Point,https://www.venquis.com/de/,Coworking Space,,Coworking Space,"Serviced Office Office, Coworking, Virtual Office, Events, Meeting & Conference Space.","Freiberufler, Selbständige, Programmierer, Teams, Unternehmen"
W2G Offices,Rudolf-Breitscheid-Straße 51,90762,Fürth,49.4704206500000,10.996739079067,Point,https://www.w2g-offices.de/,Coworking Space,"W2G Offices in Fürth bietet ein modernes Arbeitsumfeld, das sich durch lichtdurchflutete Räume und eine klare, besondere Atmosphäre auszeichnet. Die Räumlichkeiten sind für flexible Arbeitsweisen konzipiert und bieten eine Vielzahl an Services, die es den Nutzern ermöglichen, sich auf ihre Kernarbeit zu konzentrieren. Das Konzept von W2G Offices fördert einen offenen Gedanken- und Ideenaustausch sowie bereicherndes Networking.","Moderner Arbeitsplatz, Eventlocation","Vermietung von Arbeitsplätzen, Meeting- und Trainingsräumen, leichtes Arbeiten mit ""leichtem Gepäck"", umfassende technische und organisatorische Unterstützung, offener Gedanken- und Ideenaustausch, Networking","Freiberufler, Selbständige, Teams, Unternehmen"
WORK | IN Fürth - Coworking Space,Gebhardtstraße 5,90762,Fürth,49.4701891499999,10.992413330965,Point,http://www.workinfuerth.de/,Coworking Space,"WorkIn Fürth bietet in einem historischen Gebäude nahe des Hauptbahnhofs moderne und flexible Arbeitsräume an. Es ist ideal für Unternehmer, Kreative und Startups, die ein lebendiges Netzwerk und professionelle Arbeitsbedingungen suchen. Das Konzept fördert Agilität, Kollaboration und Innovation in einer inspirierenden Umgebung.",Moderner Arbeitsraum in einem charmanten Altbau,"Flexible Arbeitsplätze, Meeting- und Trainingsräume, kostenloses WLAN, Kaffee, Wasser und Snacks, Postempfang, Workshopzubehör, Beamer, Rollcontainer, Marktplatz zum Netzwerken","Freiberufler, Selbständige,Programmierer, Teams, Unternehmen"
workspaceIn Stadtpark - Coworking Space Nürnberg,Virchowstraße 20,90409,Nürnberg,49.4677073000000,11.095644356017,Point,http://workspacein.de/,Coworking Space,"WorkspaceIN bietet in Nürnberg ein professionelles und modernes Coworking-Erlebnis. Nutzer können von einem Arbeitsplatz mit Gartenblick oder von der Dachterrasse aus arbeiten. Die Räumlichkeiten sind modern ausgestattet und bieten alles Notwendige für produktives Arbeiten, einschließlich schnellem Internet und moderner Präsentationstechnologie. WorkspaceIN eignet sich ideal für Berufstätige und Unternehmen, die flexible Arbeitsplätze mit hohem Komfort suchen.",Modernes und professionelles Arbeitsumfeld,"24/7 Zugang, moderne Einrichtung, schnelles Internet, Präsentationstechnik auf dem neuesten Stand, attraktive Meetingräume","Freiberufler, Selbständige,Programmierer, Geschäftsreisende, Teams, Unternehmen"
workspaceIn Stresemanplatz - Coworking Space Nürnberg,Sulzbacher Str. 48,90489,Nürnberg,49.4584412000000,11.095480100000,Point,https://workspacein.de/,Coworking Space,"WorkspaceIN bietet in Nürnberg ein professionelles und modernes Coworking-Erlebnis. Nutzer können von einem Arbeitsplatz mit Gartenblick oder von der Dachterrasse aus arbeiten. Die Räumlichkeiten sind modern ausgestattet und bieten alles Notwendige für produktives Arbeiten, einschließlich schnellem Internet und moderner Präsentationstechnologie. WorkspaceIN eignet sich ideal für Berufstätige und Unternehmen, die flexible Arbeitsplätze mit hohem Komfort suchen.",Modernes und professionelles Arbeitsumfeld,"24/7 Zugang, moderne Einrichtung, schnelles Internet, Präsentationstechnik auf dem neuesten Stand, attraktive Meetingräume","Freiberufler, Selbständige,Programmierer, Geschäftsreisende, Teams, Unternehmen"
Kraftwerk Erba,An d. Spinnerei 1,96047,Bamberg,49.9021350000000,10.869442969481,Point,https://kraftwerk-erba.space/,"Coworking Space, Accelerator","Das Kraftwerk ERBA auf der Erba-Insel in Bamberg bietet einen innovativen Space, der sowohl Coworking-Plätze als auch einen Accelerator für Startups umfasst. Es bietet zudem Raum für Veranstaltungen und Meetings in einer historischen und inspirierenden Umgebung. Die Vision des Kraftwerks ERBA ist es, die Innovations- und Netzwerkkultur in Bamberg zu steigern und wertvolle Synergien zu schaffen.",Innovativer Space im denkmalgeschützten Wasserkraftwer,"Arbeitsplätze für Coworker, Unterstützung für Startups durch Mentoren und Coachings, Vermittlung zu Investoren, Raum für Events und Meetings","Freiberufler, Selbständige, Programmierer, Teams, Unternehmen"
Fab Lab Region Nürnberg e.V.,Schwabacher Straße 512,90763,Fürth,49.4377092000000,10.992528000000,Point,https://fablab-nuernberg.de/,Fablab,"Das FabLab Region Nürnberg e.V. ist ein Fablab und ein Makerspace, die es jedem ermöglicht, eigene Ideen umzusetzen. Das FabLab veranstaltet regelmäßige Events wie das OpenLab und KidsLab sowie Workshops und Kurse zu verschiedenen Themen, darunter auch Inkscape. Es ist ein Ort für kreatives Arbeiten und Lernen, offen für alle Interessierten.",Verein für kreative Technologie und Handwerk,"OpenLab, KidsLab, RepairCafé, TextileLab, Workshops zu verschiedenen Themen, Inkscape Aufbaukurs","Bastler, Konstrukteure, Heimwerker, Bürger, Maker, Kreative, Interessiert an Technologie und Handwerk"
FabLab Landkreis Fürth e.V.,Siegelsdorfer Straße 24,90587,Veitsbronn,49.5112552000000,10.879400900000,Point,https://www.fablab-fuerth.org/,Fablab,"Das FabLab Landkreis Fürth bietet sowohl Mitgliedern als auch Nichtmitgliedern die Möglichkeit, moderne Fertigungstechniken zu nutzen und sich in einem kreativen Umfeld zu engagieren. Es veranstaltet regelmäßige Treffen und Workshops, um den Austausch und das Lernen in den Bereichen Technologie und Handwerk zu fördern.",Gemeinnütziger Verein,"Zugang zu Hightech-Maschinen wie 3D-Drucker, Lasercutter, digitale Stickmaschine, regelmäßige Open Labs, Workshops, Gruppenabende","Bastler, Konstrukteure, Heimwerker, Bürger, Maker, Kreative, Interessiert an Technologie und Handwerk"
FabLab Nürnberger Land e.V.,Birkensteingasse 3,91220,Schnaittach,49.5582249000000,11.341413100000,Point,https://fablab.nueland.de/,Fablab,"Das FabLab NüLand ist ein offenes Werkstattlabor, das der Öffentlichkeit Zugang zu verschiedenen modernen Fertigungstechnologien bietet. Der Verein zieht in neue Räumlichkeiten in Schnaittach um und bietet dort eine Plattform für kreative und technologische Projekte. Es veranstaltet Workshops und ermöglicht das Arbeiten an eigenen Ideen und Projekten in einer kreativen Umgebung.",Gemeinnütziger Verein,"Zugang zu modernen Fertigungstechnologien, Workshops, Projekte im Bereich Technologie und Kreativität","Bastler, Konstrukteure, Heimwerker, Bürger, Maker, Kreative, Interessiert an Technologie und Handwerk"
FAU FabLab,Erwin-Rommel-Straße 60,91058,Erlangen,49.5741451000000,11.029023700000,Point,https://fablab.fau.de/,Fablab,"Das FAU FabLab ist ein offenes Werkstattlabor, das Studierenden, Forschenden und der Öffentlichkeit Zugang zu modernen Fertigungstechnologien bietet. Es unterstützt das kreative und praktische Lernen und dient als Plattform für die Realisierung eigener Projekte und Ideen. Das Labor ist Teil der Technischen Fakultät der Friedrich-Alexander-Universität und fördert den interdisziplinären Austausch und die Zusammenarbeit.",Universitäres FabLab,"Maschinen für Prototyping (wie 3D-Drucker, Lasercutter, Elektronikarbeitsplätze), Workshops und Kurse, OpenLab-Sessions für die Öffentlichkeit","Studierende, Forschende, Maker, Bürger"
IGZ Bamberg,Kronacher Straße 41,96052,Bamberg,49.9176997000000,10.897897100000,Point,https://www.igzbamberg.de/,Gründerzentrum,Das IGZ Bamberg konzentriert sich auf die Förderung von Innovationen und die Unterstützung von Unternehmensgründungen. Es bietet Beratungen für Existenzgründer und veranstaltet regelmäßig Events und Workshops. Weitere spezifische Informationen sind auf der Webseite nicht direkt ersichtlich.,Innovations- und Gründerzentrum,"Existenzgründerberatung, Unterstützung für Entwickler und Innovatoren, Veranstaltungen und Beratungstage","Start-ups, Studierende, Unternehmengründer, Forschungseinrichtungen, Kreative, Innovatoren"
IGZ Innovations- und Gründerzentrum,Am Weichselgarten 7,91058,Erlangen,49.5431325000000,11.026153400000,Point,https://www.igz.de/,Gründerzentrum,"Das IGZ ist ein Gründerzentrum für technologieorientierte Unternehmen, das sich auf Robotik und Automation in der Metropolregion Nürnberg, Fürth und Erlangen spezialisiert hat. Das Zentrum bietet umfangreiche Dienstleistungen und setzt auf Open Innovation und enge Zusammenarbeit mit seinen Partnern","Gründerzentrum, Zukunftsstandort für Robotik und Automation","Unternehmensmakler, Beratungsunternehmen, Organisationsberater, Personaldienstleistungen","Start-ups, Studierende, Unternehmengründer, Forschungseinrichtungen"
Klee-Center GmbH Existenzgründerzentrum,Kleestraße 21-23,90461,Nürnberg,49.4338290000000,11.091711500000,Point,https://www.kleecenter.de/,Gründerzentrum,"Das Klee-Center bietet Existenzgründern aus allen Branchen eine Plattform zum Start und Wachstum ihres Unternehmens. Es stellt attraktive und flexible Büroflächen, zentrale Infrastruktur- und Serviceleistungen sowie ein Netzwerk für Unternehmer und freiberuflich Tätige bereit.",Gründerzentrum,"Gründerberatung, Bürovermietung, Seminarraumvermietung, Beratungsunternehmen","Start-ups, Studierende, Unternehmengründer, Forschungseinrichtungen"
LAGARDE1,Nathan-R.-Preston-Straße 1,96052,Bamberg,49.9064598083496,10.917963027954,Point,https://lagarde1.de/,Gründerzentrum,"Das LAGARDE1 in Bamberg unterstützt Start-ups und Gründungsinteressierte dabei, das Beste aus ihren Ideen zu machen und bietet eine Plattform für Vernetzung und Zusammenarbeit. Mit verschiedenen Angeboten wie Coworking Spaces, Büros und Veranstaltungen schafft das Zentrum ein inspirierendes Umfeld für innovative Unternehmensgründungen.",Zentrum für Start-ups und Unternehmen,"Unterstützung von Gründungsinteressierten und Start-ups, Vernetzung, Coworking, Büros, Events","Start-ups, Studierende, Unternehmengründer, Forschungseinrichtungen"
Startup.Digital.Nürnberg,Kleestraße 21-23,90461,Nürnberg,49.4338290000000,11.091711500000,Point,https://startup-digital.nuernberg.de/,Gründerzentrum,"Startup.Digital.Nürnberg, ein Teil der Klee-Center GmbH und Tochtergesellschaft der Stadt Nürnberg, bietet Büroräume, Coaching und Netzwerkmöglichkeiten für Gründer und Start-ups. Als Innovationsmotor für die Region unterstützt es Unternehmen bei der Entwicklung und Vernetzung.",Innovationsmotor für die Region,"Hochwertige, attraktiv ausgestattete Büroräume, Einzel- und Teamcoaching, Multiplikatoren und Interaktionen, Veranstaltungen","Start-ups, Unternehmengründer"
ZOLLHOF – Tech Incubator,Zollhof 7,90443,Nürnberg,49.4436400000000,11.069080000000,Point,https://zollhof.de/,"Gründerzentrum, Accelerator","Der ZOLLHOF – Tech Incubator ist eine Einrichtung, die sich auf die Unterstützung von Start-ups und Unternehmensgründern spezialisiert. Sie bieten Bürovermietung, Inkubations- und Innovationsprogramme an, die sich insbesondere an Start-ups und Studenten richten. Der ZOLLHOF fördert Innovation und Unternehmertum durch die Bereitstellung von Ressourcen und die Vernetzung mit der Wirtschaft.","Gründerzentrum, Digitalisierung, Medizintechnik","Bürovermietung, Inkubationsprogramme, Innovationsprogramme für Studenten, Netzwerkveranstaltungen, Beratungsunternehmen","Start-ups, Studierende, Unternehmengründer, Forschungseinrichtungen"
HighTech Center Nürnberg (HTCN),Neumeyerstraße 48,90411,Nürnberg,49.4807890000000,11.120657900000,Point,https://www.htcn.de/,"Gründerzentrum, Innovationszentrum","Das HTCN stellt ein modernes Gebäude in Nordbayern dar, das eine Vielzahl von Unternehmen und wissenschaftlichen Einrichtungen beherbergt. Es bietet modernste Einrichtungen und legt einen Schwerpunkt auf umweltfreundliche Energieversorgung","Zentrum für Büro-, Labor- und Praxisflächen","Moderne Infrastruktur, Büro-, Labor- und Praxisflächen, Co-Working-Spaces, Betriebsrestaurant, Geothermie zur Heizung und Kühlung","Unternehmen aus IT, Start-ups, Forschungseinrichtungen, Unternehmen aus Medizintechnik"
"NKubator - Innovation- und Gründerzentrum für Energie, Greentech und Nachhaltigkeit",Fürther Straße 244a,90429,Nürnberg,49.4600702000000,11.031484400000,Point,http://www.nkubator.de/,"Gründerzentrum, Innovationszentrum","Das NKubator scheint sich auf die Unterstützung von Start-ups im Bereich Energie, Greentech und Nachhaltigkeit zu konzentrieren. Es bietet verschiedene Dienstleistungen wie Coachings und Workshops an","Gründerentrum für Energie, Greentech und Nachhaltigkeit","Unterstützung technologieorientierter Start-ups, Coachings, Workshops, Nachhaltigkeits-Check","Start-ups, Studierende, Unternehmengründer"
OM7 – Gründungs- und Kreativwirtschaftszentrum,Obermaierstraße 7,90408,Nürnberg,49.4706025000000,11.073072000000,Point,https://www.om7.de/,"Gründerzentrum, Innovationszentrum, Coworking Space","Das OM7 ist ein Ort für interdisziplinären Austausch und Wissenstransfer, der sich auf die Unterstützung von Gründenden und Unternehmer*innen der Kreativwirtschaft konzentriert. Es bietet eine Vielzahl von Dienstleistungen und Programmen zur Förderung von Innovationen und kreativen Geschäftsmodellen.",Business Innovation Center für Existenzgründungen und junge Unternehmen der Kreativwirtschaft,"Open Innovation, Kreativ Garage (Gründungsprogramm), Kreativ Punkt (Veranstaltungsformate), Kreativ Labor (Businessworkshops), Coworking, Seminarräume","Start-ups, Studierende, Unternehmengründer, Forschungseinrichtungen, Kreative, Innovatoren"
0x90.space,Wandererstr. 89c,90431,Nürnberg,49.4560175000000,11.030800500000,Point,https://0x90.space/,HackerSpace,"0x90.space ist eine kleine Hackgruppe in Nürnberg, die sich regelmäßig trifft, um an gemeinschaftlichen Projekten zu arbeiten oder einfach nur Zeit miteinander zu verbringen. Sie veranstalten Workshops und bieten Gelegenheiten zum Austausch mit Menschen aus Hackspaces und Künstler*innen. Die Gruppe betont, dass sie sich dem ""Nichtstun"" widmet, was jedoch oft in kreativen und technischen Aktivitäten resultiert.",Hackgruppe,"Regelmäßige Treffen, Workshops, Projekte, Community-Austausch","Programmierer, Nerds, Hacker, Geeks, Interessierte an Technologie"
Nerdberg e.V.,Jakobinenstraße 26,90762,Fürth,49.4704533000000,11.003323100000,Point,https://wiki.nerdberg.de/Hauptseite,HackerSpace,"Nerdberg e.V. ist ein Ort für Kreativität und technischen Austausch in Nürnberg. Der Verein bietet einen Raum, in dem sich Personen mit Interesse an Technologie, Hacking und ähnlichen Themen treffen und austauschen können. Mit einer offenen und einladenden Atmosphäre richtet Nerdberg regelmäßige Veranstaltungen und Workshops aus, um Wissen zu teilen und die Gemeinschaft zu fördern.",Hackgruppe,"Hackspace für Nerds, Hacker, Geeks und andere dem Chaosumfeld affine Personen, regelmäßige Treffen, Vorträge & Workshops","Programmierer, Nerds, Hacker, Geeks, Interessierte an Technologie"
Nürnberger Hackspace K4CG,"Königstraße 93, 90402 Nürnberg",90402,Nürnberg,49.4487901000000,11.081974300000,Point,https://k4cg.org/index.php/N%C3%BCrnberger_Hackspace_K4CG,HackerSpace,"Die K4 Computergruppe (K4CG), Teil der Offenen Werkstätten im Künstlerhaus Nürnberg, ist ein offener Raum für alle, die sich für Technik begeistern. Hier finden regelmäßige Treffen und Workshops statt, und die Gruppe unterstützt beim Umgang mit verschiedenen Betriebssystemen und technischen Herausforderungen. Sie bietet auch eine Plattform für Austausch und Networking in der lokalen Technologie-Community.",Hackgruppe,"Regelmäßige Treffen, Chaostreff, Vorträge und Workshops, Support für Linux/BSD/macOS/Windows-Nutzer:innen, Hilfe beim Programmieren, Löten, 3D-Drucken","Programmierer, Nerds, Hacker, Geeks, Interessierte an Technologie"
Open Device Lab Nürnberg,Klingenhofstraße 5,90411,Nürnberg,49.4751761000000,11.106745300000,Point,https://odl-nbg.de/de,HackerSpace,"Das Open Device Lab Nürnberg bietet lokale Web-Entwickler die Möglichkeit, ihre Webseiten und Apps auf einer ständig wachsenden Auswahl mobiler Endgeräte zu testen. Es befindet sich in den Agenturräumen der tollwerk GmbH und wird nach vorheriger Terminvereinbarung zu den üblichen Geschäftszeiten besucht werden können. Es unterstützt die lokale Entwicklergemeinschaft, indem es Zugang zu vielfältigen Testgeräten ermöglicht und damit zur Qualitätssicherung von Webanwendungen beiträgt.",Testlabor für mobile Endgeräte,"Bereitstellung einer Auswahl an mobilen Endgeräten zur Testung von Web-Entwicklungen, Unterstützung von Entwicklern bei praktischen Tests","Programmierer, Nerds, Hacker, Geeks, Interessierte an Technologie"
tollwerkstatt,Klingenhofstraße 5,90411,Nürnberg,49.4751761000000,11.106745300000,Point,https://tollwerkstatt.de/,HackerSpace,"Die tollwerkstatt, ein Projekt der Web- und Werbeagentur tollwerk in Nürnberg, bietet seit 2016 eine Plattform für kreative Tech-Events. Mit dem Ziel, die lokale IT- und Open-Source-Community zu fördern, stellt sie einen Raum für regelmäßige Treffen, offenen Wissensaustausch und kreative Veranstaltungen zur Verfügung. Der Werkstattcharakter der Räumlichkeiten fördert eine unkonventionelle und kreative Atmosphäre.",Veranstaltungs- und Workshopraum,"Plattform für Meetups, Workshops, kreative Tech-Events, Unterstützung der IT- und Open-Source-Community","IT- und Open-Source-Community, Entwickler, Kreative"
Backspace e.V.,Spiegelgraben 41,96052,Bamberg,49.9018897000000,10.892628700000,Point,https://www.hackerspace-bamberg.de/Hauptseite,"HackerSpace, MakerSpace","Der Backspace ist der Bamberger Hackerspace, ein Ort, an dem sich Menschen zum Austausch über Technik, digitale Kunst und freies Wissen treffen. Der Hackerspace bietet eine Lounge, ein Hardwarelabor und einen Bastel- und Aktionsraum, schnelles Internet und verschiedene Werkzeuge und Geräte. Er veranstaltet regelmäßig Vorträge und Workshops zu technischen Themen und deren Auswirkungen auf Gesellschaft und Politik. Der Backspace steht jedem Interessierten offen und fördert den kreativen Umgang mit Technik in einem gemeinschaftlichen Umfeld.",Kreativer Freiraum für technische Projekte,"Regelmäßige Treffen, Vorträge, Workshops, Bereitstellung von Räumlichkeiten und Infrastruktur für technische und kreative Projekte","Interessierte an Technologie, Hacker, Künstler, Kreative"
Neo Bamberg,Pestalozzistraße 10,96052,Bamberg,49.9098321000000,10.916570600000,Point,https://neo-bamberg.de/,"HackerSpace, MakerSpace","NEO Bamberg ist ein Kreativ- und Technikzentrum, das Kinder und Jugendliche in die Welt der Mathematik, Informatik, Naturwissenschaften, Technik und Kreativität einführt. Es bietet diverse Angebote, die von spielerischen Einstiegen in die digitale Welt bis hin zu spezifischen Projekten in verschiedenen Altersgruppen reichen. Das Ziel von NEO ist es, junge Menschen spielerisch und kreativ an technische und naturwissenschaftliche Themen heranzuführen und ihnen Raum für die Entwicklung eigener Ideen zu geben.",Außerschulischer Techniklernort,"Spielerischer Einstieg in die digitale Welt, Grundlagen des Programmierens, Kennenlernen von Werkzeugen und Baumaterialien, Entwicklung von Ideen, kreatives Ausleben",Kinder und Jugendliche
Innovationslabor Industrial IoT,Nordostpark 84,90411,Nürnberg,49.4870356000000,11.129122900000,Point,https://www.iis.fraunhofer.de/de/ff/lv/Innovationslabor.html,Innovationslabor,"Das Innovationslabor Industrial IoT am Fraunhofer IIS bietet Unternehmen eine einzigartige Testumgebung für Industrie 4.0-Anwendungen. Das Labor ermöglicht die Entwicklung, Erprobung und das Testen von Lokalisierungs- und Kommunikationstechnologien und bietet eine umfassende Infrastruktur für die Digitalisierung von Industrieprozessen.","Forschungs- und Entwicklungslabor, Digitalisierung","Entwicklung, Erprobung und Testen von Lokalisierungs- und Kommunikationstechnologien, Individuelle Lösungen und Prototypenentwicklung, 1.400 Quadratmeter Hallen- und Laborfläche für Indoor- und Outdooranwendungen","Industriepartner, Unternehmen, Forschungseinrichtungen"
JOSEPHS - Das offene Innovationslabor,Augustinerstraße 19,90403,Nürnberg,49.4539821000000,11.074704600000,Point,https://josephs-innovation.de/wp/,Innovationslabor,"Das JOSEPHS ist ein offenes Innovationslabor, das Menschen die Möglichkeit bietet, an der Entwicklung zukünftiger Innovationen teilzunehmen. Besucher können hier neue Ideen entdecken, ausprobieren und durch ihr Feedback mitgestalten. Das JOSEPHS verfolgt einen partizipativen und co-kreativen Ansatz und dient als Plattform für die gemeinsame Entwicklung von zukunftsweisenden Lösungen.","Innovations- und Kreativitätszentrum, Open Innovation","Erlebniswelt für Innovationen, Co-Kreation und partizipative Entwicklung, Veranstaltungen und Workshops","Hochschulen, Kreative, Innovatoren"
Ohm Innovation Center,"Auf AEG, Muggenhofer Straße",90429,Nürnberg,49.4606570000000,11.029371000000,Point,https://www.th-nuernberg.de/forschung-innovation/forschungseinrichtungen/ohm-innovation-center/,Innovationslabor,"Das Ohm Innovation Center „Auf AEG“ wird ab Herbst 2024 das Zentrum der angewandten Forschung der Technischen Hochschule Nürnberg bilden. Es zielt darauf ab, technologische, soziale, ökonomische und kulturelle Innovationen, insbesondere in Zusammenarbeit mit Industrie, Startups, KMU und anderen Organisationen, in der Metropolregion Nürnberg voranzutreiben. Das Zentrum wird ein Umfeld bieten, das die Erarbeitung von Forschungsergebnissen, die Gründung von Unternehmen und die Initiierung von Innovationen fördert.",Zentrum der angewandten Forschung,"Entwicklung von Forschungsergebnissen, Unterstützung bei Unternehmensgründungen und technologischen sowie sozialen Innovationen","Forschende, Unternehmen, Start-ups, Forschungseinrichtungen, Institutionen"
LEONARDO – Zentrum für Kreativität und Innovation,Karl-Grillenberger-Straße 3a,90402,Nürnberg,49.4517326354980,11.070027351379,Point,https://leonardo-zentrum.de/,"Innovationslabor, Coworking Space","Das LEONARDO – Zentrum für Kreativität und Innovation in Nürnberg ist eine Kooperation zwischen verschiedenen Hochschulen und zielt darauf ab, die interdisziplinäre Zusammenarbeit in den Bereichen Lehre, Forschung und Transfer zu fördern. Es bietet eine Plattform für die Entwicklung und Realisierung kreativer und innovativer Ideen und veranstaltet verschiedene Workshops und Veranstaltungen zur Förderung dieser Ziele.","Innovations- und Kreativitätszentrum, Open Innovation","Förderung interdisziplinärer Zusammenarbeit, Unterstützung innovativer Projektideen, Veranstaltungen und Workshops","Hochschulen, Kreative, Innovatoren"
Offene Werkstatt Bamberg,Weißenburgstraße 10,96052,Bamberg,49.9034691000000,10.913020500000,Point,https://www.owba.de/,MakerSpace,"Die Offenen Werkstätten Bamberg e.V. bieten einen Raum für kreative und handwerkliche Tätigkeiten. Sie sind mit verschiedenen Werkzeugen und Geräten ausgestattet und ermöglichen es Mitgliedern der Gemeinschaft, Projekte zu verwirklichen, Fähigkeiten zu erlernen und sich gegenseitig zu inspirieren. Der Verein legt Wert auf gegenseitige Unterstützung und das gemeinsame Lernen und Schaffen.",Gemeinnütziger Verein,"Maschinen, Geräte, Werkzeuge, Platz zum Arbeiten, Austausch und gegenseitige Inspiration, Unterstützung durch Thekenkräfte","Bürger, Maker, Kreative"
Urban Lab Nürnberg,Frankenstraße 200,90461,Nürnberg,49.4301337000000,11.094497300000,Point,https://www.urbanlab-nuernberg.de/,MakerSpace,"Das Urban Lab Nürnberg ist ein Labor für urbane Experimente und Gestaltung. Es ermöglicht Menschen, aktiv an der Gestaltung ihrer Stadt teilzunehmen. Mit einem Fokus auf Nachhaltigkeit und Interdisziplinarität, arbeitet das Urban Lab an Lösungen, um Städte grüner und lebenswerter zu machen.","Urbanes Experimentier- und Gestaltungslabor, Makerspace","Forschung und Entwicklung urbaner Lösungen, Partizipative und co-kreative Arbeitsweise, Unterstützung und Prototyping für städtische Projekte","Stadtplaner, Architekten, Bürger, Maker"
Werk Eins Makerspace,Schwabacher Straße 512,90763,Fürth,49.4377092000000,10.992528000000,Point,http://werk-eins.com/,MakerSpace,"Werk Eins bietet auf einem gemischten Gewerbestandort von knapp 18.000 Quadratmetern Flächen für diverse Nutzungszwecke. Der Standort eignet sich für Unternehmen, die flexiblen Raum für Büro, Produktion, Labor und andere Zwecke benötigen. Die Werk Eins Lounge bietet eine einzigartige Location im Industrielook für diverse Veranstaltungen und ist exklusiv für Mieter, deren Mitarbeiter, Kunden und Geschäftspartner zugänglich.",Gewerbestandort mit vielfältigen Nutzungsmöglichkeiten,"Mietflächen für Büro, Produktion, Labor, Ausstellung, Lager, Fotostudio, Werkstatt uvm., Werk Eins Lounge für Veranstaltungen wie Teammeetings, Mitarbeiterschulungen, Kundenpräsentationen, Workshops, Hackathons oder Privatveranstaltungen","Unternehmen, Institutionen, Start-ups"
Zentrum für Austausch und Machen (ZAM),Hauptstraße 65-67,91054,Erlangen,49.6000372000000,11.002802800000,Point,https://www.zam.haus/,MakerSpace,"ZAM in Erlangen ist ein Ort, der die Freude am (Selber-)Machen fördert und eine Plattform für kreative, technische und künstlerische Projekte bietet. Es bietet Werkstätten und Räume für gemeinschaftliches Arbeiten und ist ein Treffpunkt für Menschen, die Ideen umsetzen und sich in einer offenen und unterstützenden Umgebung austauschen wollen.",Gemeinnütziger Verein,"Offene Werkstätten und Projektflächen, Förderung des (Selber-)Machens in Gemeinschaft, Zugang zu Fertigungstechniken, Werkstätten für Holz und Metall, Textil, Farbe und Druck, digitale Fertigung, Elektronik, Biowerkstatt","Bürger, Maker, Kreative"
"ADA Lovelace Center for Analytics, Data, Applications",Nordostpark 84,90411,Nürnberg,49.4870356000000,11.129122900000,Point,https://www.iis.fraunhofer.de/de/profil/zukunftsinitiativen/adacenter.html,Technologietransferzentrum,"Das ADA Lovelace Center, angesiedelt am Fraunhofer IIS, ist auf Forschung und Entwicklung in den Bereichen Analytics, Data und Applications spezialisiert. Es dient als Schnittstelle zwischen Wissenschaft und Industrie, um die Beherrschung von Daten und deren Analyse voranzutreiben. Das Center kooperiert eng mit Universitäten und der mittelständischen Wirtschaft.","Forschungs- und Entwicklungszentrum, angewandte Forschungs- und Entwicklung","Forschung und Entwicklung in den Bereichen Analytics, Data, Applications, Kooperationen mit Wissenschaft und Industrie","Industriepartner, Forschungseinrichtungen, Unternehmen, Wissenschaftscommunity"
Energy Campus Nürnberg (EnCN),Fürther Straße 250,90429,Nürnberg,49.4602808000000,11.028279000000,Point,https://www.encn.de/,Technologietransferzentrum,"Das EnCN ist ein Energieforschungszentrum, das innovative Technologien für ein ganzheitliches Energiesystem entwickelt. Als unabhängiges Forschungsnetzwerk kooperiert es mit verschiedenen Forschungseinrichtungen in der Metropolregion Nürnberg und arbeitet an Projekten, um Lösungen für die Energiezukunft zu entwickeln.","Energieforschungszentrum, Unabhängiges Forschungsnetzwerk","Entwicklung neuer Technologien für ein ganzheitliches Energiesystem, Kooperationen mit Forschungsinstitutionen und Unternehmen","Industriepartner, Forschungseinrichtungen, Unternehmen in der Energiebranche, Wissenschaftscommunity"
ESI-Anwendungszentrum,Nordostpark 84,90411,Nürnberg,49.4870356000000,11.129122900000,Point,https://www.esi-anwendungszentrum.de/,Technologietransferzentrum,"Das ESI-Anwendungszentrum fokussiert sich auf die Entwicklung und Forschung in eingebetteten Systemen. Es bietet anwendungsorientierte Forschung für branchenorientierte Lösungen, mit speziellen Labs für Sport & Gesundheit, Fahrzeugsensorik und Automatisierung im Kontext der Industrie 4.0.","Forschungszentrum für eingebettete Systeme, angewandte Forschungs- und Entwicklung, Digitalisierung","Forschung in eingebetteten Systemen für verschiedene Anwendungsbereiche, Entwicklung von Technologien für Sport & Gesundheit, Fahrzeuge, Industrie 4.0","Industriepartner, Forschungseinrichtungen, Unternehmen, Wissenschaftscommunity"
Test- und Anwendungszentrum L.I.N.K.,Nordostpark 84,90411,Nürnberg,49.4870356000000,11.129122900000,Point,https://www.iis.fraunhofer.de/de/profil/standorte/linkhalle.html,Technologietransferzentrum,"Das Test- und Anwendungszentrum L.I.N.K. am Fraunhofer IIS in Nürnberg ist auf die Entwicklung und Evaluierung zukunftsweisender Technologien spezialisiert, insbesondere in den Bereichen Lokalisierung, Identifikation, Navigation und Kommunikation. Das Zentrum bietet eine einzigartige Testinfrastruktur und technologieorientierte Beratungsdienstleistungen für Unternehmen und Forschungseinrichtungen.","Test- und Forschungszentrum, angewandte Forschungs- und Entwicklung","Entwicklung und Evaluierung zukunftsweisender Technologien, Technologieberatung und Systemevaluation","Industriepartner, Forschungseinrichtungen, Unternehmen, Wissenschaftscommunity"
Friedrich-Alexander-Universität Erlangen-Nürnberg (FAU),Schloßplatz 4,91054,Erlangen,49.5978721000000,11.004528200000,Point,https://www.fau.de/,Universitäre und außeruniversitäre Forschung,Die Friedrich-Alexander-Universität Erlangen-Nürnberg ist eine der größten Forschungsuniversitäten in Deutschland. Sie bietet ein breites Spektrum an Studiengängen und zeichnet sich durch ihre starke Forschungstradition und internationale Kooperationen aus. Die Universität fördert Innovationen und überwindet dabei fachliche und geografische Grenzen.,Volluniversität,"Studienangebote, Forschungsprojekte, Innovationsförderung","Studieninteressierte, Studierende, Forschende, Wissenschaftler, Lehrende, Wissenschaftscommunity"
Friedrich-Alexander-Universität Erlangen-Nürnberg (FAU),Lange Gasse 20,90403,Nürnberg,49.4581289000000,11.086179600000,Point,https://www.fau.de/,Universitäre und außeruniversitäre Forschung,Die Friedrich-Alexander-Universität Erlangen-Nürnberg ist eine der größten Forschungsuniversitäten in Deutschland. Sie bietet ein breites Spektrum an Studiengängen und zeichnet sich durch ihre starke Forschungstradition und internationale Kooperationen aus. Die Universität fördert Innovationen und überwindet dabei fachliche und geografische Grenzen.,Volluniversität,"Studienangebote, Forschungsprojekte, Innovationsförderung","Studieninteressierte, Studierende, Forschende, Wissenschaftler, Lehrende, Wissenschaftscommunity"
Otto-Friedrich-Universität Bamberg,Kapuzinerstraße 16,96047,Bamberg,49.8938763000000,10.886080800000,Point,https://www.uni-bamberg.de/,Universitäre und außeruniversitäre Forschung,"Die Otto-Friedrich-Universität Bamberg ist eine renommierte Hochschule, die sich durch eine Vielzahl von Studiengängen und eine starke Forschungsausrichtung auszeichnet. Sie bietet ein internationales und dynamisches Studienumfeld und betont die Bedeutung der interdisziplinären Forschung. Die Universität ist bestrebt, neue Erkenntnisse zu gewinnen und innovative Lösungen zu entwickeln.",Volluniversität,"Studienangebote, Forschungsprojekte, Innovationsförderung","Studieninteressierte, Studierende, Forschende, Wissenschaftler, Lehrende, Wissenschaftscommunity"
Technische Hochschule Nürnberg,Keßlerplatz 12,90489,Nürnberg,49.4522688000000,11.093469200000,Point,https://www.th-nuernberg.de/,Universitäre und außeruniversitäre Forschung,"Die Technische Hochschule Nürnberg ist eine Bildungs- und Forschungseinrichtung, die ein vielfältiges Angebot an Studiengängen und Weiterbildungsmöglichkeiten bietet. Sie ist aktiv in der Forschung, insbesondere in Bereichen wie angewandter Informatik und Energiesysteme. Die Hochschule ist auch international ausgerichtet und bietet verschiedene Programme und Projekte an, die Innovation und interdisziplinäre Zusammenarbeit fördern.",Hochschule,"Studienangebote, Weiterbildung, Forschungsprojekte","Studieninteressierte, Studierende, Forschende, Wissenschaftler, Lehrende, Wissenschaftscommunity"
HTK Hygiene Technologie Kompetenzzentrum,Buger Straße 80,96049,Bamberg,49.8671849000000,10.890560200000,Point,https://hygiene-tk.de/,"Universitäre und außeruniversitäre Forschung, Innovationszentrum","Das HTK ist ein Institut, das sich auf Hygiene und Infektionsprävention spezialisiert hat und aktiv in den Bereichen Hygienemanagement, Forschung und Services, Training und Qualifizierung sowie als Innovation Hub tätig ist. Es bietet individuelle Beratung und Qualifikation durch ein interdisziplinäres Team und ist Teil der Unternehmensgruppe Sozialstiftung Bamberg.",Anwendungsorientiertes Institut,"Hygienemanagement, Forschung & Services, Training & Qualifizierung, Innovation Hub","Unternehmen aus Medizintechnik, Gesundheits- und Sozialeinrichtungen, Öffentliche Hand"
Innovation Lab for Wearable and Ubiquitous Computing,Carl-Thiersch-Straße 2b,91052,Erlangen,49.5946398000000,11.026177700000,Point,https://www.mad.tf.fau.de/teaching/innolab/#collapse_21,"Universitäre und außeruniversitäre Forschung, Innovationszentrum","Das Innovation Lab for Wearable and Ubiquitous Computing an der FAU bietet Studierenden die Möglichkeit, praktische Fragestellungen im Bereich System- und Software-Engineering im Kontext von Wearables und IoT-Geräten kreativ und innovativ zu lösen. Das Labor bietet eine Infrastruktur zur Umsetzung eigener Produktideen oder zur Arbeit an Themen von Industriepartnern und der Universität.",Labor für tragbare und allgegenwärtige Computertechnologien,"Entwicklung und Erprobung von Technologien für Wearables und Ubiquitous Computing, Zusammenarbeit mit Industriepartnern und der Universität","Studierende, Forschende, Industriepartner"
Institute for Healthcare Robotics and Automation (IFOHRA),Am Werkkanal 6,96047,Bamberg,49.9035033000000,10.868323500000,Point,https://www.ifohra.de/,"Universitäre und außeruniversitäre Forschung, Technologietransferzentrum","Das IFOHRA kombiniert Expertise aus dem Gesundheitswesen und der Industrie, um innovative, humanzentrierte Lösungen zur Effizienzsteigerung im Gesundheitsbereich zu entwickeln und umzusetzen. Es bietet einen Health Check, um Prozesse sowohl qualitativ als auch quantitativ zu bewerten und arbeitet eng mit wissenschaftlichen Beratern zusammen.","Forschungs- und Entwicklungsinstiut, Technologietransferzentrum","Entwicklung von robotik- und automatisierungsbasierten Lösungen für das Gesundheitswesen, Prozessanalyse, Realisierung von individuellen, auf Business Cases basierten Lösungen, Implementierung zukunftsweisender Technologien","Gesundheitsdienstleister, Krankenhäuser, medizinische Einrichtungen"
Nuremberg Campus of Technology,Fürther Str. 246b,90429,Nürnberg,49.4601525000000,11.029920800000,Point,https://www.th-nuernberg.de/einrichtungen-gesamt/wissenschaftliche-und-forschungskooperationen/nuremberg-campus-of-technology/,"Universitäre und außeruniversitäre Forschung, Technologietransferzentrum","Der Nuremberg Campus of Technology ist ein Think Tank für Smart City-Lösungen. Er fokussiert auf die Entwicklung neuer Konzepte in Automatisierungstechnik, Energie- und Speichertechnologien, intelligenter Verkehrsplanung und nachhaltigkeitsorientiertem Innovationsmanagement.","Forschungs- und Entwicklungszentrum, Smart Cities","Forschung in Smart Cities Lösungen, Automatisierungstechnik, Energie- und Speichertechnologien, Intelligente Verkehrsplanung","Forschende, Studierende, Industriepartner"
Fraunhofer-Institut für Integrierte Schaltungen IIS,Am Wolfsmantel 33,91058,Erlangen,49.5469201000000,11.018640000000,Point,https://www.iis.fraunhofer.de/,"Universitäre und außeruniversitäre Forschung, Technologietransferzentrum, Innovationszentrum",Das Fraunhofer IIS ist eine weltweit führende Forschungseinrichtung für mikroelektronische und informationstechnische Systemlösungen. Das Institut ist bekannt für seine anwendungsorientierte Forschung und bietet Dienstleistungen für Industrie und öffentliche Hand. Es fokussiert sich auf Bereiche wie kognitive Sensorik und Audio- und Medientechnologien.,Forschungsinstitut,"Forschung und Entwicklung mikroelektronischer und informationstechnischer Systemlösungen, Dienstleistungen für Industrie und öffentliche Hand","Industriepartner, Öffentliche Hand, Wissenschaftscommunity"
Medical Valley Center Bamberg,Promenadestraße 6a,96047,Bamberg,49.8939498000000,10.892179000000,Point,https://medical-valley-bamberg.de/,"Universitäre und außeruniversitäre Forschung, Technologietransferzentrum, Innovationszentrum, Gründerzentrum",Das Medical Valley Center Bamberg konzentriert sich auf die Förderung von Innovationen im Gesundheitssektor und dient als Magnet für Unternehmen und Forschungseinrichtungen in diesem Bereich. Mit einem geplanten Gebäude auf dem Lagarde-Campus soll eine innovative Infrastruktur für die Gesundheitsversorgung und Medizintechnik in Bamberg geschaffen werden.,"Forschungs- und Entwicklungszentrum, Gründerzentrum","Entwicklung zukunftsweisender Innovationen in der Gesundheitswirtschaft, enge Vernetzung zwischen Forschung, Gesundheitsdienstleistern und Patienten in der Region, Unterstützung von Unternehmen und Start-ups","Unternehmen der Gesundheitsbranche, Forschungseinrichtungen, Patienten, Gesundheitsdienstleister"